OBJECT AV
1 43801U 18099AV  19003.80482914  .00000596  00000-0  59524-4 0  9991
2 43801  97.7610  77.6398 0015189 150.3038 209.9048 14.95137735  4632
JO-97
1 43803U 18099AX  19002.93470423  .00000474  00000-0  48386-4 0  9997
2 43803 097.7627 076.7877 0015880 160.6572 199.5255 14.95143351004500
Suomi 100
1 43804U 18099AY  19003.80457046  .00000572  00000-0  57286-4 0  9999
2 43804  97.7626  77.6487 0016020 157.9282 202.2632 14.95150961  4642
Al Farabi 2
1 43805U 18099AZ  19003.80423743  .00000698  00000-0  68725-4 0  9996
2 43805  97.7626  77.6491 0016084 158.1690 202.0220 14.95171292  4645
OBJECT BA
1 43806U 18099BA  19003.80403955  .00000478  00000-0  48734-4 0  9994
2 43806  97.7627  77.6465 0015726 156.0750 204.1205 14.95173981  4333
MinXSS 2
1 43807U 18099BB  19003.80224341  .00000490  00000-0  49762-4 0  9991
2 43807  97.7643  77.6616 0013756 153.9773 206.2142 14.95262423  4043
OBJECT BD
1 43809U 18099BD  19003.80131000  .00000375  00000-0  39213-4 0  9994
2 43809  97.7643  77.6618 0015953 159.2308 200.9564 14.95306107  4330
OBJECT BE
1 43810U 18099BE  19003.80121255  .00000332  00000-0  35344-4 0  9991
2 43810  97.7554  77.6282 0015264 153.9988 206.2003 14.95307521  4181
OBJECT BH
1 43813U 18099BH  19003.80031842  .00000496  00000-0  50152-4 0  9991
2 43813  97.7716  77.6919 0014866 147.9275 212.2853 14.95358035  4322
PWSat 2
1 43814U 18099BJ  19003.81026381  .00012325  00000-0  11290-2 0  9997
2 43814  97.7639  77.6494 0013813 164.0024 196.1616 14.95001888  4034
OBJECT BK
1 43815U 18099BK  19003.80281919  .00000258  00000-0  28731-4 0  9999
2 43815  97.7639  77.6597 0014391 159.6787 200.5010 14.95225806  4336
OBJECT BM
1 43817U 18099BM  19003.66819639  .00001129  00000-0  10757-3 0  9997
2 43817  97.7658  77.5274 0014470 148.2202 211.9895 14.95293278  4160
OBJECT BN
1 43818U 18099BN  19003.80218925  .00000772  00000-0  75230-4 0  9996
2 43818  97.7655  77.6592 0014484 146.6451 213.5685 14.95274592  4337
OBJECT BP
1 43819U 18099BP  19003.80166074  .00000328  00000-0  34969-4 0  9995
2 43819  97.7637  77.6607 0014120 158.5820 201.5995 14.95284340  4225
OBJECT BQ
1 43820U 18099BQ  19003.80149938  .00000338  00000-0  35894-4 0  9996
2 43820  97.7600  77.6479 0013523 148.8610 211.3414 14.95295106  4035
CHOMPTT
1 43855U 18104G   19002.92110523  .00000042  00000-0  00000 0 0  9999
2 43855  85.0388 166.6545 0016681 202.5943 157.4607 15.22061398  2659
